[{"OBJECT_NAME":"STARLINK-30783","OBJECT_ID":"2023-162N","EPOCH":"2026-03-09T05:15:40.575168","MEAN_MOTION":15.2756185,"ECCENTRICITY":5.79e-5,"INCLINATION":43.0004,"RA_OF_ASC_NODE":131.8664,"ARG_OF_PERICENTER":38.3391,"MEAN_ANOMALY":321.7502,"EPHEMERIS_TYPE":0,"CLASSIFICATION_TYPE":"U","NORAD_CAT_ID":58130,"ELEMENT_SET_NO":999,"REV_AT_EPOCH":13227,"BSTAR":0.00034331605,"MEAN_MOTION_DOT":9.192e-5,"MEAN_MOTION_DDOT":0},{"OBJECT_NAME":"OBJECT P","OBJECT_ID":"2025-155P","EPOCH":"2026-03-09T22:15:55.475424","MEAN_MOTION":15.2544775,"ECCENTRICITY":0.00080527,"INCLINATION":97.4496,"RA_OF_ASC_NODE":37.0295,"ARG_OF_PERICENTER":153.0691,"MEAN_ANOMALY":207.0966,"EPHEMERIS_TYPE":0,"CLASSIFICATION_TYPE":"U","NORAD_CAT_ID":64889,"ELEMENT_SET_NO":999,"REV_AT_EPOCH":6557,"BSTAR":0.00031377111,"MEAN_MOTION_DOT":7.871e-5,"MEAN_MOTION_DDOT":0}]
